#dP2019  3 20  0  0  0.00000000      96 __u+U ITR00 FIT  IAC
## 2045 259200.00000000   900.00000000 58562 0.0000000000000
+   93   C01C02C03C05C06C07C08C09C10C11C12C13C14C16E01E02E03
+        E04E05E07E08E09E11E12E13E14E15E18E19E21E24E25E26E27
+        E30E31E33E36G01G02G03G04G05G06G07G08G09G10G11G12G13
+        G14G15G16G17G18G19G20G21G22G23G24G25G26G27G28G29G30
+        G31G32R01R02R03R04R05R07R08R09R10R11R13R14R15R16R17
+        R18R19R20R21R22R23R24R26  0  0  0  0  0  0  0  0  0
++         0 11 12 11  9  9 10  8  8  8  8  9  8  9  5  6  5
++         5  6  5  5  6  6  6  5  0  5  6  5  6  6  6  5  6
++         6  6  6  7  3  4  4  0  4  4  4  4  4  4  4  4  4
++         4  4  4  3  4  3  4  4  3  4  4  4  4  4  4  4  4
++         3  4  6  6  5  5  5  6  6  6  6  5  6  6  5  6  6
++         6  6  5  5  5  6  6  8  0  0  0  0  0  0  0  0  0
%c M  cc GPS ccc cccc cccc cccc cccc ccccc ccccc ccccc ccccc
%c cc cc ccc ccc cccc cccc cccc cccc ccccc ccccc ccccc ccccc
%f  0.0000000  0.000000000  0.00000000000  0.000000000000000
%f  0.0000000  0.000000000  0.00000000000  0.000000000000000
%i    0    0    0    0      0      0      0      0         0
%i    0    0    0    0      0      0      0      0         0
/*                                                          
/*   RSA / INFORMATION & ANALYSIS CENTER (IAC) OF MCC       
/*   ULTRA-RAPID DETERMINATION                              
/* PCV:IGS14_2038 OL/AL:FES2004  NONE     YN ORB:CoN CLK:CoN
*  2019 03 20  4 45  0.00000000
PC01 -32285.158260  27131.137949    134.712423    352.924027
PC02   4397.953423  41891.644908  -1148.130258   -388.013359
PC03 -14737.373370  39469.267681   -302.213079    -26.507513
PC05  21909.024341  35990.329130  -1209.057531   -139.560313
PC06 -19576.008517  37110.254109    870.346574    556.658646
PC07  -6885.357502  29849.785193  29266.013450     87.958064
PC08 -21971.153454  19421.761912 -30311.561723    132.075443
PC09 -10321.251033  37908.742171  15039.207585    619.470466
PC10   4541.748532  35923.316984  22041.058488   -589.479993
PC11 -16176.744250  -6170.492959  21957.023651    -59.562476
PC12  10421.563245 -20603.657973  15684.625664    506.515800
PC13  -5975.275031  23364.869208 -34557.504129   -603.420009
PC14  -9582.470556 -24490.469616  -9341.833256    747.834510
PC16 -17038.250543  38264.351678   4002.561530   -398.058734
PE01 -19622.093087    730.237918  22145.224000   -565.856973
PE02  19590.158198   -794.039024 -22177.650098     52.249377
PE03  18203.023679 -11905.368312  20073.758504   -145.846917
PE04 -11228.798386  26959.062248  -4817.547464   -243.993997
PE05  14555.780867  10220.326812  23664.010722     88.632754
PE07  -2405.822689 -26278.901616 -13394.201363   -152.525003
PE08  10931.781427 -27085.617186   4768.180497   6386.022375
PE09   2562.909522  26241.260490  13474.234703   6494.937677
PE11   5937.392061  15386.018701 -24577.411958   5714.501719
PE12 -16257.786038  16798.577424 -18131.056076   6411.727754
PE13  -5758.891376 -15356.986520  24652.291756    384.450049
PE14      0.000000      0.000000      0.000000 999999.999999
PE15  15878.632315 -16907.122318  18408.702874    916.605576
PE18  23995.969708 -14288.129141 -10666.218370   -597.419757
PE19 -18188.142469   9901.761435 -21144.239587     -7.626705
PE21 -23260.500078 -16655.476950   7593.100603   -524.937796
PE24  13266.504244  24107.229963  10864.741145   6176.273178
PE25  23254.086394  16682.137509  -7557.567760   1860.180995
PE26 -24071.100554  -5157.758566  16445.400961   4778.465931
PE27 -13070.297322 -24041.512310 -11294.585350    506.996181
PE30   4549.760892 -17583.981591 -23388.641699   5018.830127
PE31  -4772.607007  17313.405311  23530.218999    878.650155
PE33 -28298.889848   8550.458607  -1345.657673    847.946385
PE36  24126.476210   4789.126809 -16462.234292    734.400409
PG01  15726.783177  13450.669756 -17001.115977   -184.322300
PG02   8261.691649 -14625.826519  21146.136416   -167.964834
PG03  12781.663892  23050.149800   3567.461128    186.849671
PG04      0.000000      0.000000      0.000000 999999.999999
PG05    561.504398 -22402.378771  13979.269215      1.177571
PG06  20236.088524  -8195.390119  15193.024328    251.047572
PG07  25246.485262   7218.430234   5654.333197     11.530617
PG08  -1711.558967  21095.638442 -15878.806770   -136.821835
PG09  16309.749349   2550.497018  20765.340053    442.479792
PG10 -15085.770594   3056.262006 -21602.313689     93.206891
PG11  10251.206110  13659.469173 -20840.989310   -641.943096
PG12 -10361.043441 -24446.785475   2190.775273    258.624390
PG13  10471.821502 -21923.518634 -10799.178013    -71.054199
PG14 -18858.858564  18183.064847  -3420.278775    -87.692092
PG15  -2445.368787 -20407.075239 -16869.806671   -322.678730
PG16  -1127.964488  22970.066911  12702.629510    -26.629168
PG17  20140.940678 -12153.998826 -11836.245791     26.092415
PG18   5453.965613  15540.425955 -21346.249448     36.442596
PG19  19743.685516 -17309.987159  -4618.760859   -340.314734
PG20 -18965.513253  -6252.315688 -17685.246404    523.254375
PG21 -26193.312724  -3401.815345   2776.288364   -229.071657
PG22   9412.895356  24499.916644  -4035.845961   -667.696714
PG23   9204.043839  13543.862326  21167.198114   -193.388830
PG24 -12064.238711 -14598.852699 -18900.077043    -63.628481
PG25 -16489.126677 -16808.078125  12336.633231   -735.339033
PG26  -7983.297232  15921.954432  19628.901114    153.870916
PG27 -10718.110013  23020.323793  -7331.344036    -89.903146
PG28  14796.191731   -791.700951 -21428.823051    766.555602
PG29 -12172.121922  -8260.087526  22087.368227    245.279957
PG30  25973.558113   -341.339363  -5964.075456    -71.552376
PG31 -19792.977308   8429.102924  15861.231235     50.934516
PG32 -19462.704677  14988.051754  -9911.721459   -172.614967
PR01   6844.982598 -21565.407687  11766.796670     41.085081
PR02  -2239.615422 -24004.657936  -8372.684871    359.614721
PR03  -9284.016248 -10998.935427 -21030.405102     -7.474640
PR04 -10768.381199   8980.973129 -21287.462426    299.238724
PR05  -6096.149647  22783.692082  -9680.741855     24.412799
PR07   9449.229308  10399.359423  21315.783834-422764.038777
PR08  10890.810344  -8185.236474  21619.477993     18.584773
PR09  14010.045837  17076.376306  12824.899604     60.015218
PR10  21532.966404  13535.158632  -2447.817021     45.509039
PR11  17775.080652   1443.792330 -18247.950944    -60.253136
PR13 -13091.352829 -16680.355343 -14202.252170    -21.451449
PR14 -21631.825744 -13281.839148   2478.765644     37.084760
PR15 -18159.907692  -2186.970391  17797.335305    100.741754
PR16  -4189.397964  10392.218251  22880.813797     10.666078
PR17 -16484.353617  -1932.086211  19394.722654    213.515757
PR18 -23384.976083   8479.262612   5514.995579     37.260466
PR19 -18052.078759  13894.596402 -11466.045023     48.480126
PR20   -442.886998  11434.290329 -22778.188110   -372.303327
PR21  16854.906246   1505.424182 -19073.795760    -37.557722
PR22  23468.415159  -9760.496957  -2856.792124    -10.303487
PR23  13998.171318 -14512.935485  15626.799101    216.430624
PR24  -1389.224400 -10851.589580  23025.141282   -178.396789
PR26  -2693.233905  12373.051409 -22130.575553      2.421662
EOF
